GPS BIIR-2  (PRN 13)    
1 24876U 97035A   23248.09510192 -.00000021  00000+0  00000+0 0  9999
2 24876  55.5871 138.3152 0072588  52.3424 308.3793  2.00564042191572
GPS BIIR-4  (PRN 20)    
1 26360U 00025A   23248.47229175 -.00000053  00000+0  00000+0 0  9997
2 26360  54.4338  60.5554 0041478 199.3073 162.7927  2.00570668170902
GPS BIIR-5  (PRN 22)    
1 26407U 00040A   23248.65950396  .00000039  00000+0  00000+0 0  9995
2 26407  55.2034 255.5472 0155697 291.4723  48.5163  2.00570696169571
GPS BIIR-8  (PRN 16)    
1 27663U 03005A   23248.77185955  .00000040  00000+0  00000+0 0  9990
2 27663  55.2455 255.3528 0131899  44.6875 153.4322  2.00565932150937
GPS BIIR-9  (PRN 21)    
1 27704U 03010A   23248.19334069 -.00000109  00000+0  00000+0 0  9997
2 27704  55.1156   5.3365 0248709 318.7563  39.9585  2.00574889149736
GPS BIIR-11 (PRN 19)    
1 28190U 04009A   23248.28407279 -.00000080  00000+0  00000+0 0  9998
2 28190  55.6895 316.4320 0092904 138.7345 223.5811  2.00567254142576
GPS BIIR-13 (PRN 02)    
1 28474U 04045A   23248.19985604 -.00000108  00000+0  00000+0 0  9997
2 28474  55.4426   5.6579 0162328 282.5685  74.4361  2.00579947138047
GPS BIIRM-1 (PRN 17)    
1 28874U 05038A   23248.31120289 -.00000075  00000+0  00000+0 0  9991
2 28874  55.7408 313.8829 0139574 279.5207 123.9318  2.00575382131469
GPS BIIRM-2 (PRN 31)    
1 29486U 06042A   23248.58210509  .00000020  00000+0  00000+0 0  9990
2 29486  54.6849 191.6063 0103150  32.1033 108.5917  2.00569676124026
GPS BIIRM-3 (PRN 12)    
1 29601U 06052A   23248.30709022  .00000037  00000+0  00000+0 0  9991
2 29601  55.2666 254.3305 0083278  79.3962 281.5572  2.00549605123070
GPS BIIRM-4 (PRN 15)    
1 32260U 07047A   23248.12314174 -.00000028  00000+0  00000+0 0  9992
2 32260  53.4649 122.1082 0151399  70.6416 291.0673  2.00551390116432
GPS BIIRM-5 (PRN 29)    
1 32384U 07062A   23248.40680900 -.00000076  00000+0  00000+0 0  9993
2 32384  55.8727 314.7004 0024898 150.3495 184.7731  2.00558812115136
GPS BIIRM-6 (PRN 07)    
1 32711U 08012A   23248.53577758  .00000019  00000+0  00000+0 0  9999
2 32711  54.4522 190.4389 0177535 235.8545 122.4390  2.00557282113380
GPS BIIRM-8 (PRN 05)    
1 35752U 09043A   23248.51413435 -.00000044  00000+0  00000+0 0  9990
2 35752  55.4347  67.6699 0058378  69.0309 292.0524  2.00557864102995
GPS BIIF-1  (PRN 25)    
1 36585U 10022A   23248.58817949  .00000043  00000+0  00000+0 0  9997
2 36585  54.5656 249.5359 0109230  59.6688 111.4034  2.00562023 97228
GPS BIIF-3  (PRN 24)    
1 38833U 12053A   23248.21440683  .00000015  00000+0  00000+0 0  9997
2 38833  53.5130 185.1570 0142039  51.9539 309.3105  2.00567182 79954
GPS BIIF-4  (PRN 27)    
1 39166U 13023A   23248.57522985 -.00000068  00000+0  00000+0 0  9999
2 39166  55.3557 310.0676 0114237  41.7192 319.2070  2.00564255 75511
GPS BIIF-5  (PRN 30)    
1 39533U 14008A   23248.07522051  .00000022  00000+0  00000+0 0  9999
2 39533  53.6002 190.7204 0067228 215.7513 143.7843  2.00551705 69306
GPS BIIF-6  (PRN 06)    
1 39741U 14026A   23248.35680018 -.00000103  00000+0  00000+0 0  9990
2 39741  56.6967  10.9501 0029025 310.9105  48.8460  2.00557066 68160
GPS BIIF-7  (PRN 09)    
1 40105U 14045A   23247.94203733 -.00000023  00000+0  00000+0 0  9997
2 40105  54.8127 129.0479 0024866 113.1865 247.1497  2.00577734 65697
GPS BIIF-8  (PRN 03)    
1 40294U 14068A   23247.82072277 -.00000040  00000+0  00000+0 0  9994
2 40294  56.1778  70.4409 0049113  61.9041 298.6343  2.00571798 64822
GPS BIIF-9  (PRN 26)    
1 40534U 15013A   23247.95671508  .00000038  00000+0  00000+0 0  9994
2 40534  53.4646 246.2640 0080382  25.2762 335.1169  2.00554658 61443
GPS BIIF-10 (PRN 08)    
1 40730U 15033A   23248.61701320 -.00000066  00000+0  00000+0 0  9996
2 40730  54.8442 308.6793 0085225  13.9660 346.3295  2.00555183 59641
GPS BIIF-11 (PRN 10)    
1 41019U 15062A   23248.66964651 -.00000039  00000+0  00000+0 0  9992
2 41019  56.1623  70.2576 0089132 221.0210 138.3468  2.00562281 57469
GPS BIIF-12 (PRN 32)    
1 41328U 16007A   23248.76157790 -.00000032  00000+0  00000+0 0  9997
2 41328  55.0170 129.7937 0071390 233.8705 125.5372  2.00575514 55514
GPS BIII-1  (PRN 04)    
1 43873U 18109A   23248.78797064 -.00000031  00000+0  00000+0 0  9994
2 43873  55.1931 132.3078 0025637 191.0992  83.3250  2.00568923 34653
GPS BIII-2  (PRN 18)    
1 44506U 19056A   23248.51974257 -.00000104  00000+0  00000+0 0  9993
2 44506  55.8215  11.3935 0036958 185.1759 155.1752  2.00565588 29697
GPS BIII-3  (PRN 23)    
1 45854U 20041A   23248.53304264 -.00000042  00000+0  00000+0 0  9994
2 45854  55.8841  68.6751 0036101 186.0581 107.2740  2.00563540 23665
GPS BIII-4  (PRN 14)    
1 46826U 20078A   23248.40551880  .00000038  00000+0  00000+0 0  9992
2 46826  54.3117 252.0199 0036001 194.6954 342.0418  2.00562716 21133
GPS BIII-5  (PRN 11)    
1 48859U 21054A   23248.43178817 -.00000103  00000+0  00000+0 0  9997
2 48859  55.3392  13.1823 0012212 211.2017 166.8544  2.00573557 16389
GPS BIII-6  (PRN 28)    
1 55268U 23009A   23248.59464368  .00000017  00000+0  00000+0 0  9990
2 55268  55.0900 188.3646 0004344  91.2160  85.7710  2.00555625  4863
